ONEWEB-0572             
1 55151U 23004M   25226.50939535 -.00000006  00000+0 -48058-4 0  9998
2 55151  87.9035  66.8934 0001592  89.8836 270.2478 13.17644825127096
ONEWEB-0573             
1 55152U 23004N   25226.49738385  .00000097  00000+0  21441-3 0  9991
2 55152  87.9122  36.4225 0000975 107.1435 252.9803 13.18688128129279
ONEWEB-0588             
1 55153U 23004P   25226.49079265  .00000063  00000+0  12709-3 0  9997
2 55153  87.9127  36.4082 0001491 104.3720 255.7577 13.18687111129276
ONEWEB-0598             
1 55154U 23004Q   25226.52354049  .00000357  00000+0  97120-3 0  9994
2 55154  87.8785  82.1988 0001321  64.7888 295.3377 13.11414681125700
ONEWEB-0599             
1 55155U 23004R   25226.47058306  .00000042  00000+0  76117-4 0  9991
2 55155  87.9031  66.9053 0001744  80.4700 279.6629 13.17650560127099
ONEWEB-0614             
1 55156U 23004S   25226.59475539  .00000490  00000+0  13474-2 0  9998
2 55156  87.8787  82.1945 0001798  94.5834 265.5500 13.11415777125655
ONEWEB-0616             
1 55157U 23004T   25226.51278014  .00000014  00000+0  33004-5 0  9996
2 55157  87.9033  66.8878 0002511  66.6977 293.4419 13.17648509127318
ONEWEB-0617             
1 55158U 23004U   25226.50658954  .00000393  00000+0  10718-2 0  9995
2 55158  87.8783  82.1905 0001556  93.8253 266.3053 13.11416637125667
ONEWEB-0618             
1 55159U 23004V   25226.47005074  .00001290  00000+0  22102-3 0  9999
2 55159  86.9100 300.8481 0013922 353.6319   6.4717 14.67968512136118
ONEWEB-0619             
1 55160U 23004W   25226.46892220 -.00001269  00000+0 -33029-2 0  9994
2 55160  87.9023  66.8720 0002025  94.9473 265.1890 13.17635703127201
ONEWEB-0620             
1 55161U 23004X   25226.50150012  .00000341  00000+0  92582-3 0  9994
2 55161  87.8788  82.2131 0001522  82.6879 277.4421 13.11418124125633
ONEWEB-0621             
1 55162U 23004Y   25226.60492829  .00000191  00000+0  50205-3 0  9990
2 55162  87.8793  82.1494 0001894  89.4381 270.6963 13.11414836125627
ONEWEB-0622             
1 55163U 23004Z   25226.53370714 -.00000111  00000+0 -34780-3 0  9995
2 55163  87.8783  82.1859 0001552 110.8156 249.3138 13.11413736125605
ONEWEB-0623             
1 55164U 23004AA  25226.46382408 -.00000018  00000+0 -80432-4 0  9993
2 55164  87.9022  66.9296 0002034 108.8485 251.2867 13.17650626127190
ONEWEB-0624             
1 55165U 23004AB  25226.52880797 -.00000114  00000+0 -34847-3 0  9990
2 55165  87.8856  51.6016 0001795  90.6517 269.4817 13.12942755127832
ONEWEB-0625             
1 55166U 23004AC  25226.52964732 -.00000004  00000+0 -43964-4 0  9992
2 55166  87.9023  66.9137 0001881  82.9111 277.2234 13.17649500127199
ONEWEB-0626             
1 55167U 23004AD  25226.51952283 -.00000037  00000+0 -12934-3 0  9998
2 55167  87.9024  66.9142 0001302  74.7023 285.4252 13.17648548127198
