[{"OBJECT_NAME":"ONEWEB-0572","OBJECT_ID":"2023-004M","EPOCH":"2025-08-14T12:13:31.758240","MEAN_MOTION":13.17644825,"ECCENTRICITY":0.0001592,"INCLINATION":87.9035,"RA_OF_ASC_NODE":66.8934,"ARG_OF_PERICENTER":89.8836,"MEAN_ANOMALY":270.2478,"EPHEMERIS_TYPE":0,"CLASSIFICATION_TYPE":"U","NORAD_CAT_ID":55151,"ELEMENT_SET_NO":999,"REV_AT_EPOCH":12709,"BSTAR":-4.8058e-5,"MEAN_MOTION_DOT":-6.0e-8,"MEAN_MOTION_DDOT":0},{"OBJECT_NAME":"ONEWEB-0573","OBJECT_ID":"2023-004N","EPOCH":"2025-08-14T11:56:13.964640","MEAN_MOTION":13.18688128,"ECCENTRICITY":9.75e-5,"INCLINATION":87.9122,"RA_OF_ASC_NODE":36.4225,"ARG_OF_PERICENTER":107.1435,"MEAN_ANOMALY":252.9803,"EPHEMERIS_TYPE":0,"CLASSIFICATION_TYPE":"U","NORAD_CAT_ID":55152,"ELEMENT_SET_NO":999,"REV_AT_EPOCH":12927,"BSTAR":0.00021441,"MEAN_MOTION_DOT":9.7e-7,"MEAN_MOTION_DDOT":0},{"OBJECT_NAME":"ONEWEB-0588","OBJECT_ID":"2023-004P","EPOCH":"2025-08-14T11:46:44.484960","MEAN_MOTION":13.18687111,"ECCENTRICITY":0.0001491,"INCLINATION":87.9127,"RA_OF_ASC_NODE":36.4082,"ARG_OF_PERICENTER":104.372,"MEAN_ANOMALY":255.7577,"EPHEMERIS_TYPE":0,"CLASSIFICATION_TYPE":"U","NORAD_CAT_ID":55153,"ELEMENT_SET_NO":999,"REV_AT_EPOCH":12927,"BSTAR":0.00012709,"MEAN_MOTION_DOT":6.3e-7,"MEAN_MOTION_DDOT":0},{"OBJECT_NAME":"ONEWEB-0598","OBJECT_ID":"2023-004Q","EPOCH":"2025-08-14T12:33:53.898336","MEAN_MOTION":13.11414681,"ECCENTRICITY":0.0001321,"INCLINATION":87.8785,"RA_OF_ASC_NODE":82.1988,"ARG_OF_PERICENTER":64.7888,"MEAN_ANOMALY":295.3377,"EPHEMERIS_TYPE":0,"CLASSIFICATION_TYPE":"U","NORAD_CAT_ID":55154,"ELEMENT_SET_NO":999,"REV_AT_EPOCH":12570,"BSTAR":0.0009712,"MEAN_MOTION_DOT":3.57e-6,"MEAN_MOTION_DDOT":0},{"OBJECT_NAME":"ONEWEB-0599","OBJECT_ID":"2023-004R","EPOCH":"2025-08-14T11:17:38.376384","MEAN_MOTION":13.1765056,"ECCENTRICITY":0.0001744,"INCLINATION":87.9031,"RA_OF_ASC_NODE":66.9053,"ARG_OF_PERICENTER":80.47,"MEAN_ANOMALY":279.6629,"EPHEMERIS_TYPE":0,"CLASSIFICATION_TYPE":"U","NORAD_CAT_ID":55155,"ELEMENT_SET_NO":999,"REV_AT_EPOCH":12709,"BSTAR":7.6117e-5,"MEAN_MOTION_DOT":4.2e-7,"MEAN_MOTION_DDOT":0},{"OBJECT_NAME":"ONEWEB-0614","OBJECT_ID":"2023-004S","EPOCH":"2025-08-14T14:16:26.865696","MEAN_MOTION":13.11415777,"ECCENTRICITY":0.0001798,"INCLINATION":87.8787,"RA_OF_ASC_NODE":82.1945,"ARG_OF_PERICENTER":94.5834,"MEAN_ANOMALY":265.55,"EPHEMERIS_TYPE":0,"CLASSIFICATION_TYPE":"U","NORAD_CAT_ID":55156,"ELEMENT_SET_NO":999,"REV_AT_EPOCH":12565,"BSTAR":0.0013474,"MEAN_MOTION_DOT":4.9e-6,"MEAN_MOTION_DDOT":0},{"OBJECT_NAME":"ONEWEB-0616","OBJECT_ID":"2023-004T","EPOCH":"2025-08-14T12:18:24.204096","MEAN_MOTION":13.17648509,"ECCENTRICITY":0.0002511,"INCLINATION":87.9033,"RA_OF_ASC_NODE":66.8878,"ARG_OF_PERICENTER":66.6977,"MEAN_ANOMALY":293.4419,"EPHEMERIS_TYPE":0,"CLASSIFICATION_TYPE":"U","NORAD_CAT_ID":55157,"ELEMENT_SET_NO":999,"REV_AT_EPOCH":12731,"BSTAR":3.3004e-6,"MEAN_MOTION_DOT":1.4e-7,"MEAN_MOTION_DDOT":0},{"OBJECT_NAME":"ONEWEB-0617","OBJECT_ID":"2023-004U","EPOCH":"2025-08-14T12:09:29.336256","MEAN_MOTION":13.11416637,"ECCENTRICITY":0.0001556,"INCLINATION":87.8783,"RA_OF_ASC_NODE":82.1905,"ARG_OF_PERICENTER":93.8253,"MEAN_ANOMALY":266.3053,"EPHEMERIS_TYPE":0,"CLASSIFICATION_TYPE":"U","NORAD_CAT_ID":55158,"ELEMENT_SET_NO":999,"REV_AT_EPOCH":12566,"BSTAR":0.0010718,"MEAN_MOTION_DOT":3.93e-6,"MEAN_MOTION_DDOT":0},{"OBJECT_NAME":"ONEWEB-0618","OBJECT_ID":"2023-004V","EPOCH":"2025-08-14T11:16:52.383936","MEAN_MOTION":14.67968512,"ECCENTRICITY":0.0013922,"INCLINATION":86.91,"RA_OF_ASC_NODE":300.8481,"ARG_OF_PERICENTER":353.6319,"MEAN_ANOMALY":6.4717,"EPHEMERIS_TYPE":0,"CLASSIFICATION_TYPE":"U","NORAD_CAT_ID":55159,"ELEMENT_SET_NO":999,"REV_AT_EPOCH":13611,"BSTAR":0.00022102,"MEAN_MOTION_DOT":1.29e-5,"MEAN_MOTION_DDOT":0},{"OBJECT_NAME":"ONEWEB-0619","OBJECT_ID":"2023-004W","EPOCH":"2025-08-14T11:15:14.878080","MEAN_MOTION":13.17635703,"ECCENTRICITY":0.0002025,"INCLINATION":87.9023,"RA_OF_ASC_NODE":66.872,"ARG_OF_PERICENTER":94.9473,"MEAN_ANOMALY":265.189,"EPHEMERIS_TYPE":0,"CLASSIFICATION_TYPE":"U","NORAD_CAT_ID":55160,"ELEMENT_SET_NO":999,"REV_AT_EPOCH":12720,"BSTAR":-0.0033029,"MEAN_MOTION_DOT":-1.269e-5,"MEAN_MOTION_DDOT":0},{"OBJECT_NAME":"ONEWEB-0620","OBJECT_ID":"2023-004X","EPOCH":"2025-08-14T12:02:09.610368","MEAN_MOTION":13.11418124,"ECCENTRICITY":0.0001522,"INCLINATION":87.8788,"RA_OF_ASC_NODE":82.2131,"ARG_OF_PERICENTER":82.6879,"MEAN_ANOMALY":277.4421,"EPHEMERIS_TYPE":0,"CLASSIFICATION_TYPE":"U","NORAD_CAT_ID":55161,"ELEMENT_SET_NO":999,"REV_AT_EPOCH":12563,"BSTAR":0.00092582,"MEAN_MOTION_DOT":3.41e-6,"MEAN_MOTION_DDOT":0},{"OBJECT_NAME":"ONEWEB-0621","OBJECT_ID":"2023-004Y","EPOCH":"2025-08-14T14:31:05.804256","MEAN_MOTION":13.11414836,"ECCENTRICITY":0.0001894,"INCLINATION":87.8793,"RA_OF_ASC_NODE":82.1494,"ARG_OF_PERICENTER":89.4381,"MEAN_ANOMALY":270.6963,"EPHEMERIS_TYPE":0,"CLASSIFICATION_TYPE":"U","NORAD_CAT_ID":55162,"ELEMENT_SET_NO":999,"REV_AT_EPOCH":12562,"BSTAR":0.00050205,"MEAN_MOTION_DOT":1.91e-6,"MEAN_MOTION_DDOT":0},{"OBJECT_NAME":"ONEWEB-0622","OBJECT_ID":"2023-004Z","EPOCH":"2025-08-14T12:48:32.296896","MEAN_MOTION":13.11413736,"ECCENTRICITY":0.0001552,"INCLINATION":87.8783,"RA_OF_ASC_NODE":82.1859,"ARG_OF_PERICENTER":110.8156,"MEAN_ANOMALY":249.3138,"EPHEMERIS_TYPE":0,"CLASSIFICATION_TYPE":"U","NORAD_CAT_ID":55163,"ELEMENT_SET_NO":999,"REV_AT_EPOCH":12560,"BSTAR":-0.0003478,"MEAN_MOTION_DOT":-1.11e-6,"MEAN_MOTION_DDOT":0},{"OBJECT_NAME":"ONEWEB-0623","OBJECT_ID":"2023-004AA","EPOCH":"2025-08-14T11:07:54.400512","MEAN_MOTION":13.17650626,"ECCENTRICITY":0.0002034,"INCLINATION":87.9022,"RA_OF_ASC_NODE":66.9296,"ARG_OF_PERICENTER":108.8485,"MEAN_ANOMALY":251.2867,"EPHEMERIS_TYPE":0,"CLASSIFICATION_TYPE":"U","NORAD_CAT_ID":55164,"ELEMENT_SET_NO":999,"REV_AT_EPOCH":12719,"BSTAR":-8.0432e-5,"MEAN_MOTION_DOT":-1.8e-7,"MEAN_MOTION_DDOT":0},{"OBJECT_NAME":"ONEWEB-0624","OBJECT_ID":"2023-004AB","EPOCH":"2025-08-14T12:41:29.008608","MEAN_MOTION":13.12942755,"ECCENTRICITY":0.0001795,"INCLINATION":87.8856,"RA_OF_ASC_NODE":51.6016,"ARG_OF_PERICENTER":90.6517,"MEAN_ANOMALY":269.4817,"EPHEMERIS_TYPE":0,"CLASSIFICATION_TYPE":"U","NORAD_CAT_ID":55165,"ELEMENT_SET_NO":999,"REV_AT_EPOCH":12783,"BSTAR":-0.00034847,"MEAN_MOTION_DOT":-1.14e-6,"MEAN_MOTION_DDOT":0},{"OBJECT_NAME":"ONEWEB-0625","OBJECT_ID":"2023-004AC","EPOCH":"2025-08-14T12:42:41.528448","MEAN_MOTION":13.176495,"ECCENTRICITY":0.0001881,"INCLINATION":87.9023,"RA_OF_ASC_NODE":66.9137,"ARG_OF_PERICENTER":82.9111,"MEAN_ANOMALY":277.2234,"EPHEMERIS_TYPE":0,"CLASSIFICATION_TYPE":"U","NORAD_CAT_ID":55166,"ELEMENT_SET_NO":999,"REV_AT_EPOCH":12719,"BSTAR":-4.3964e-5,"MEAN_MOTION_DOT":-4.0e-8,"MEAN_MOTION_DDOT":0},{"OBJECT_NAME":"ONEWEB-0626","OBJECT_ID":"2023-004AD","EPOCH":"2025-08-14T12:28:06.772512","MEAN_MOTION":13.17648548,"ECCENTRICITY":0.0001302,"INCLINATION":87.9024,"RA_OF_ASC_NODE":66.9142,"ARG_OF_PERICENTER":74.7023,"MEAN_ANOMALY":285.4252,"EPHEMERIS_TYPE":0,"CLASSIFICATION_TYPE":"U","NORAD_CAT_ID":55167,"ELEMENT_SET_NO":999,"REV_AT_EPOCH":12719,"BSTAR":-0.00012934,"MEAN_MOTION_DOT":-3.7e-7,"MEAN_MOTION_DDOT":0}]
